stk.v.11.0

# WrittenBy    STK_v11.7.1

BEGIN Ephemeris

    NumberOfEphemerisPoints		 2568

    ScenarioEpoch		 16 Jul 2020 03:40:48.000000

# Epoch in JDate format: 2459046.65333333333333
# Epoch in YYDDD format:   20198.15333333333333


    InterpolationMethod		 Lagrange

    InterpolationSamplesM1		 7

    CentralBody		 Earth

    CoordinateSystem		 ICRF

# Time of first point: 16 Jul 2020 03:40:48.000000000 UTCG = 2459046.65333333333333 JDate = 20198.15333333333333 YYDDD

    EphemerisTimePosVel		

 6.8599413999998549e+04  3.6162053188127186e+06 -5.4165654302094094e+06 -6.6137736040057056e+05 -4.4764829399040053e+02 -1.2447843981160042e+03  7.6916807788973329e+03
 6.8648329999998547e+04  3.5881663001843765e+06 -5.4682023044692185e+06 -2.8421660537669726e+05 -6.9843840401787452e+02 -8.6586646037039736e+02  7.7246823746746450e+03
 6.8699987999998542e+04  3.5452996292270822e+06 -5.5025250657727271e+06  1.1511240498380514e+05 -9.6066552276214122e+02 -4.6256626424226857e+02  7.7309012688728099e+03
 6.8756190999998536e+04  3.4833848778018607e+06 -5.5161440617389046e+06  5.4902608776244556e+05 -1.2417571828271421e+03 -2.1900299186582458e+01  7.7042430643388861e+03
 6.8812194999998537e+04  3.4061258906505471e+06 -5.5050696691404181e+06  9.7894437191017286e+05 -1.5162603810627752e+03  4.1722396139818062e+02  7.6431612100210095e+03
 6.8860612999998542e+04  3.3270761937239585e+06 -5.4757057720387541e+06  1.3471680340933201e+06 -1.7481261343325152e+03  7.9535866871443659e+02  7.5628001140167453e+03
 6.8910549999998548e+04  3.2339352408818533e+06 -5.4263072015622854e+06  1.7222126160652812e+06 -1.9811000626284979e+03  1.1824761021921508e+03  7.4534616485141787e+03
 6.8957080999998550e+04  3.1368249592971858e+06 -5.3629659287044033e+06  2.0661933184550381e+06 -2.1918230902966015e+03  1.5393497045275863e+03  7.3277528416927835e+03
 6.9003314999998547e+04  3.0307766593587524e+06 -5.2836887192164147e+06  2.4016653947893376e+06 -2.3944654759641921e+03  1.8891545216166064e+03  7.1804909219215224e+03
 6.9053250999998549e+04  2.9059107620239072e+06 -5.1800522049017884e+06  2.7557521700891256e+06 -2.6050839775329764e+03  2.2603726048232370e+03  6.9969438042482225e+03
 6.9103052999998545e+04  2.7711324828375932e+06 -5.0584276431962457e+06  3.0991419180695107e+06 -2.8058797646303392e+03  2.6224961342428442e+03  6.7892079151484204e+03
 6.9154944999998552e+04  2.6203278548717499e+06 -4.9127630460542198e+06  3.4452824592374996e+06 -3.0045051721028613e+03  2.9898358897549924e+03  6.5473506755677308e+03
 6.9205277999998551e+04  2.4644842577752243e+06 -4.7535383612933271e+06  3.7684220712321438e+06 -3.1861295941320259e+03  3.3350949110291767e+03  6.2888790981629363e+03
 6.9256376999998552e+04  2.2972143213144601e+06 -4.5744239908330776e+06  4.0825807805243088e+06 -3.3587353438315135e+03  3.6732038086580865e+03  6.0034153008404046e+03
 6.9321939999998547e+04  2.0702326314359300e+06 -4.3199107176185809e+06  4.4633094907175777e+06 -3.5618077474414899e+03  4.0867470370536175e+03  5.6048348384820492e+03
 6.9382031999998551e+04  1.8510846034279852e+06 -4.0634918032631134e+06  4.7883772777358498e+06 -3.7288193035227177e+03  4.4437964012221355e+03  5.2095728857662471e+03
 6.9436311999998550e+04  1.6449640108338057e+06 -3.8139748040427356e+06  5.0609368791693645e+06 -3.8632459985794180e+03  4.7466831251633303e+03  4.8296773656061014e+03
 6.9496994999998555e+04  1.4064482277639650e+06 -3.5162449401211487e+06  5.3405332182776630e+06 -3.9943704004486767e+03  5.0616582497414038e+03  4.3813226998706978e+03
 6.9554855999998559e+04  1.1721819563212367e+06 -3.2152777052428289e+06  5.5811550612555714e+06 -4.0999798924194756e+03  5.3373286452414877e+03  3.9326512972946934e+03
 6.9604139999998559e+04  9.6822086707962316e+05 -2.9468613942664340e+06  5.7652452713028044e+06 -4.1746160636249888e+03  5.5521766578970073e+03  3.5358101006718016e+03
 6.9653245999998559e+04  7.6168810095612425e+05 -2.6693481181490640e+06  5.9289178807614967e+06 -4.2347027408321565e+03  5.7472240123664487e+03  3.1284031021227743e+03
 6.9703634999998554e+04  5.4706643117743160e+05 -2.3751349884841889e+06  6.0757890301873973e+06 -4.2813390454938935e+03  5.9269483547375257e+03  2.6993575942508223e+03
 6.9756106999998548e+04  3.2149738446672627e+05 -2.0597178355678208e+06  6.2054821113374904e+06 -4.3135631016434181e+03  6.0914498906030876e+03  2.2423753508201453e+03
 6.9816854999998555e+04  5.8846719367481361e+04 -1.6846279059598185e+06  6.3253589518555962e+06 -4.3298971145001597e+03  6.2522227178537523e+03  1.7026140574863330e+03
 6.9858081999998554e+04 -1.1966110919703791e+05 -1.4249484998577081e+06  6.3879070970510328e+06 -4.3281232714669186e+03  6.3427951489200423e+03  1.3311128951766038e+03
 6.9900086999998559e+04 -3.0123926676202507e+05 -1.1568546230864916e+06  6.4358122719531385e+06 -4.3156307919452247e+03  6.4194084185697902e+03  9.4934259473041061e+02
 6.9951271999998557e+04 -5.2144120092067018e+05 -8.2633993220556667e+05  6.4724306517748702e+06 -4.2858727909936079e+03  6.4911202868827504e+03  4.8104152078553540e+02
 7.0000174999998562e+04 -7.3003441637452040e+05 -5.0768824907433882e+05  6.4849772501932057e+06 -4.2426213621501529e+03  6.5372005562364793e+03  3.1934943771939629e+01
 7.0046387999998566e+04 -9.2489882954697218e+05 -2.0497103910278907e+05  6.4766413177404292e+06 -4.1885730652264774e+03  6.5604599827179745e+03 -3.9260997220179570e+02
 7.0089243999998565e+04 -1.1031266994941928e+06  7.6328093435924384e+04  6.4513954828084912e+06 -4.1271496616359364e+03  6.5643441181758535e+03 -7.8531039638698417e+02
 7.0133613999998561e+04 -1.2846292153580894e+06  3.6734664789844793e+05  6.4075685040774764e+06 -4.0522690576516657e+03  6.5504219278282344e+03 -1.1897622543406983e+03
 7.0177677999998559e+04 -1.4613444581078822e+06  6.5534836930939485e+05  6.3463505879598148e+06 -3.9667390334554880e+03  6.5185617164338673e+03 -1.5882025300465102e+03
 7.0226475999998554e+04 -1.6523459717730246e+06  9.7215993054162944e+05  6.2581825162888486e+06 -3.8593130247534746e+03  6.4624065291179149e+03 -2.0243914411578944e+03
 7.0276319999998552e+04 -1.8416956902826424e+06  1.2923765236056300e+06  6.1463159422345553e+06 -3.7361508896105001e+03  6.3825808572486803e+03 -2.4629792237644642e+03
 7.0324092999998553e+04 -2.0171152888905064e+06  1.5950423349076589e+06  6.0187680918478668e+06 -3.6057467308431897e+03  6.2850038339382854e+03 -2.8753483028214905e+03
 7.0372005999998553e+04 -2.1865091715466222e+06  1.8934231845015725e+06  5.8712749429741623e+06 -3.4632255110058200e+03  6.1667277603999255e+03 -3.2797105288235480e+03
 7.0419447999998549e+04 -2.3472426934932810e+06  2.1828147514937394e+06  5.7063842424980775e+06 -3.3109666682817106e+03  6.0298286134507889e+03 -3.6697155255325429e+03
 7.0468978999998551e+04 -2.5070678075744128e+06  2.4775152496555364e+06  5.5147872632093951e+06 -3.1406923156605490e+03  5.8663548301344172e+03 -4.0645113268251193e+03
 7.0520209999998551e+04 -2.6632101815942838e+06  2.7732644190015364e+06  5.2964088283868209e+06 -2.9530254671405482e+03  5.6757645923549762e+03 -4.4581142440085378e+03
 7.0580535999998552e+04 -2.8343367208379097e+06  3.1082180746039948e+06  5.0140075785689782e+06 -2.7179065084770118e+03  5.4242247086477946e+03 -4.9003937902595962e+03
 7.0636698999998553e+04 -2.9805328039139966e+06  3.4056835831130301e+06  4.7277505267816754e+06 -2.4862681098401658e+03  5.1647394742237357e+03 -5.2896232883738703e+03
 7.0693583999998547e+04 -3.1150173381448649e+06  3.6914409123568241e+06  4.4162011544100493e+06 -2.2401962738692969e+03  4.8782340210851908e+03 -5.6598626110810847e+03
 7.0749354999998541e+04 -3.2329896804758976e+06  3.9551590095628449e+06  4.0910036058603982e+06 -1.9888231537857273e+03  4.5754360346140729e+03 -5.9977500301015789e+03
 7.0813109999998545e+04 -3.3503382751014424e+06  4.2351749928505719e+06  3.6971482349671097e+06 -1.6906121211336065e+03  4.2044269203681479e+03 -6.3516009310661148e+03
 7.0870916999998546e+04 -3.4400388836337710e+06  4.4679766308647888e+06  3.3214717417677063e+06 -1.4115865333154393e+03  3.8467986802134051e+03 -6.6408774913475390e+03
 7.0925204999998547e+04 -3.5094131234171269e+06  4.6673084977001436e+06  2.9542270512288385e+06 -1.1432846122135104e+03  3.4941048462499502e+03 -6.8839009405776887e+03
 7.0981075999998546e+04 -3.5654541012193672e+06  4.8520252715024883e+06  2.5633261355387047e+06 -8.6203588193039127e+02  3.1156780136233278e+03 -7.1039019897072776e+03
 7.1031682999998549e+04 -3.6025575753804450e+06  5.0007657224972760e+06  2.1993544771616105e+06 -6.0384013019395422e+02  2.7607696260482221e+03 -7.2759669695659004e+03
 7.1081296999998551e+04 -3.6261889941440793e+06  5.1288993948935010e+06  1.8347124879369314e+06 -3.4847825445479077e+02  2.4029246800935957e+03 -7.4188921010912391e+03
 7.1137011999998547e+04 -3.6375785550951073e+06  5.2513479504450243e+06  1.4176088776330175e+06 -6.0205558397225900e+01  1.9909654532003988e+03 -7.5483406250941516e+03
 7.1193499999998545e+04 -3.6327129255827214e+06  5.3517981446953099e+06  9.8831227226871066e+05  2.3242597228539512e+02  1.5641801954709499e+03 -7.6454564359396763e+03
 7.1252123999998541e+04 -3.6102072804890755e+06  5.4303230803385908e+06  5.3804624822987360e+05  5.3506908334363652e+02  1.1136424796921517e+03 -7.7094068383969870e+03
 7.1305134999998540e+04 -3.5746346300005028e+06  5.4784481090478385e+06  1.2855669355631387e+05  8.0657626641058937e+02  7.0140197224520318e+02 -7.7346506356005320e+03
 7.1358736999998539e+04 -3.5241126900690272e+06  5.5048042918469869e+06 -2.8601554965306277e+05  1.0778626804419173e+03  2.8165712342275771e+02 -7.7285898024330927e+03
 7.1408099999998536e+04 -3.4648179337740168e+06  5.5091414067033520e+06 -6.6680170905116270e+05  1.3238414296851088e+03 -1.0598880426376797e+02 -7.6949285974322847e+03
 7.1456482999998538e+04 -3.3950222035176982e+06  5.4948259120927611e+06 -1.0377814272588352e+06  1.5604915371371997e+03 -4.8560480174423094e+02 -7.6359197679673216e+03
END Ephemeris
